{
  "norad_id": 65848,
  "name": "STARLINK-35308",
  "history": [
    {
      "epoch": "2026-04-11T19:08:15.780768Z",
      "apogee_km": 475.8037543230448,
      "perigee_km": 474.6318306535295,
      "latitude_deg": -4.481820404303961e-05,
      "longitude_deg": 167.385876811387,
      "height_km": 476.35111757256004,
      "semi_major_axis_km": 6853.354792488287,
      "eccentricity": 8.55e-05,
      "inclination_deg": 53.1598,
      "raan_deg": 294.4634,
      "arg_perigee_deg": 113.6032,
      "mean_anomaly_deg": 246.5058,
      "mean_motion_rev_day": 15.30199088
    },
    {
      "epoch": "2026-04-13T05:37:25.724064Z",
      "apogee_km": 476.1101923277565,
      "perigee_km": 474.3753277752976,
      "latitude_deg": -2.2764451969599724e-05,
      "longitude_deg": 2.004468543816263,
      "height_km": 476.21051654186033,
      "semi_major_axis_km": 6853.379760051527,
      "eccentricity": 0.00012657,
      "inclination_deg": 53.1585,
      "raan_deg": 287.7897,
      "arg_perigee_deg": 94.6176,
      "mean_anomaly_deg": 265.4969,
      "mean_motion_rev_day": 15.30190726
    },
    {
      "epoch": "2026-04-14T20:48:46.044576Z",
      "apogee_km": 475.918138372861,
      "perigee_km": 474.5022368439013,
      "latitude_deg": 2.9651598781382687e-06,
      "longitude_deg": 124.97628653951335,
      "height_km": 476.07847171486367,
      "semi_major_axis_km": 6853.347187608381,
      "eccentricity": 0.0001033,
      "inclination_deg": 53.1587,
      "raan_deg": 280.2056,
      "arg_perigee_deg": 87.5734,
      "mean_anomaly_deg": 272.5385,
      "mean_motion_rev_day": 15.30201635
    },
    {
      "epoch": "2026-04-15T20:19:33.880224Z",
      "apogee_km": 475.93412639965845,
      "perigee_km": 474.4962931060536,
      "latitude_deg": -5.863266498591795e-05,
      "longitude_deg": 126.7600709280151,
      "height_km": 476.07541752916546,
      "semi_major_axis_km": 6853.352209752856,
      "eccentricity": 0.0001049,
      "inclination_deg": 53.1584,
      "raan_deg": 275.6544,
      "arg_perigee_deg": 86.9696,
      "mean_anomaly_deg": 273.1424,
      "mean_motion_rev_day": 15.30199953
    },
    {
      "epoch": "2026-04-16T19:50:22.139232Z",
      "apogee_km": 476.32018085315576,
      "perigee_km": 474.122994090013,
      "latitude_deg": -1.4403534180751657e-06,
      "longitude_deg": 128.54167496890386,
      "height_km": 475.9873941196869,
      "semi_major_axis_km": 6853.3585874715845,
      "eccentricity": 0.0001603,
      "inclination_deg": 53.1573,
      "raan_deg": 271.1027,
      "arg_perigee_deg": 83.1236,
      "mean_anomaly_deg": 276.9947,
      "mean_motion_rev_day": 15.30197817
    },
    {
      "epoch": "2026-04-17T20:55:12.936864Z",
      "apogee_km": 475.88401715175587,
      "perigee_km": 474.5136241210603,
      "latitude_deg": -1.9422796882959496e-05,
      "longitude_deg": 106.44457519112783,
      "height_km": 476.1121563954512,
      "semi_major_axis_km": 6853.335820636407,
      "eccentricity": 9.998e-05,
      "inclination_deg": 53.158,
      "raan_deg": 266.2473,
      "arg_perigee_deg": 91.2632,
      "mean_anomaly_deg": 268.8483,
      "mean_motion_rev_day": 15.30205442
    },
    {
      "epoch": "2026-04-18T18:51:57.679200Z",
      "apogee_km": 475.88887912406335,
      "perigee_km": 474.46613103280924,
      "latitude_deg": 1.0980308472339569e-05,
      "longitude_deg": 132.110391176497,
      "height_km": 475.87713284392515,
      "semi_major_axis_km": 6853.314505078436,
      "eccentricity": 0.0001038,
      "inclination_deg": 53.1579,
      "raan_deg": 262.0008,
      "arg_perigee_deg": 73.789,
      "mean_anomaly_deg": 286.3225,
      "mean_motion_rev_day": 15.30212581
    },
    {
      "epoch": "2026-04-19T18:22:45.704064Z",
      "apogee_km": 475.86688953249086,
      "perigee_km": 474.56954938944637,
      "latitude_deg": 2.4302695069616015e-05,
      "longitude_deg": 133.89263796749862,
      "height_km": 475.89704325452277,
      "semi_major_axis_km": 6853.355219460968,
      "eccentricity": 9.465e-05,
      "inclination_deg": 53.1582,
      "raan_deg": 257.4488,
      "arg_perigee_deg": 70.2151,
      "mean_anomaly_deg": 289.8952,
      "mean_motion_rev_day": 15.30198945
    },
    {
      "epoch": "2026-04-21T17:24:21.511008Z",
      "apogee_km": 475.88342212713906,
      "perigee_km": 474.4565636112238,
      "latitude_deg": 1.891323968092202e-05,
      "longitude_deg": 137.4626195753878,
      "height_km": 475.9043273602752,
      "semi_major_axis_km": 6853.306992869181,
      "eccentricity": 0.0001041,
      "inclination_deg": 53.1588,
      "raan_deg": 248.3493,
      "arg_perigee_deg": 76.7131,
      "mean_anomaly_deg": 283.3986,
      "mean_motion_rev_day": 15.30215097
    },
    {
      "epoch": "2026-04-22T12:13:00.249888Z",
      "apogee_km": 476.0647730984483,
      "perigee_km": 474.36377131268637,
      "latitude_deg": 1.666472944533497e-06,
      "longitude_deg": -149.11543772637017,
      "height_km": 475.72248821220364,
      "semi_major_axis_km": 6853.351272205567,
      "eccentricity": 0.0001241,
      "inclination_deg": 53.1581,
      "raan_deg": 244.7052,
      "arg_perigee_deg": 62.7146,
      "mean_anomaly_deg": 297.3981,
      "mean_motion_rev_day": 15.30200267
    }
  ]
}